OBJECT_NAME,OBJECT_ID,EPOCH,MEAN_MOTION,ECCENTRICITY,INCLINATION,RA_OF_ASC_NODE,ARG_OF_PERICENTER,MEAN_ANOMALY,EPHEMERIS_TYPE,CLASSIFICATION_TYPE,NORAD_CAT_ID,ELEMENT_SET_NO,REV_AT_EPOCH,BSTAR,MEAN_MOTION_DOT,MEAN_MOTION_DDOT
STARLINK-3342,2022-001P,2026-05-28T10:14:42.057888,15.16599033,.0003143,53.2101,166.1141,49.4684,310.6585,0,U,50816,999,24251,.10819E-2,.21143E-3,0
STARLINK-3341,2022-001Q,2026-05-29T04:41:27.765600,15.08847155,.0001206,53.2019,167.7119,52.0311,308.0790,0,U,50817,999,24256,.11954E-3,.1615E-4,0
STARLINK-3336,2022-001R,2026-05-28T10:45:42.636096,15.08841579,.0000968,53.2022,171.0643,87.8610,272.2493,0,U,50818,999,24244,-.31404E-5,-.338E-5,0
STARLINK-3327,2022-001S,2026-05-29T01:14:46.915296,15.08837228,.000109,53.2013,168.3565,65.9198,294.1908,0,U,50819,999,24254,.10687E-4,-.118E-5,0
STARLINK-3339,2022-001T,2026-05-28T08:54:26.076096,15.08835163,.0001533,53.2031,171.4104,71.3884,288.7274,0,U,50820,999,24243,.22624E-4,.72E-6,0
STARLINK-3346,2022-001U,2026-05-29T04:57:19.751040,15.08834718,.0001104,53.2004,167.5457,73.4262,286.6851,0,U,50821,999,24256,.88213E-5,-.147E-5,0
STARLINK-3343,2022-001V,2026-05-28T08:43:49.880928,15.08834072,.0001354,53.2040,171.4460,85.6933,274.4213,0,U,50822,999,24243,.16904E-4,-.19E-6,0
STARLINK-3334,2022-001W,2026-05-29T04:36:09.074016,15.08840111,.0001152,53.2014,167.7283,70.2719,289.8397,0,U,50823,999,24256,.12057E-3,.1632E-4,0
STARLINK-3332,2022-001Y,2026-05-29T00:42:59.681952,15.08833316,.0001192,53.2011,168.4540,78.4945,281.6180,0,U,50825,999,24253,.80921E-5,-.159E-5,0
STARLINK-3329,2022-001AA,2026-05-28T10:40:24.593376,15.08841259,.0000984,53.1994,171.0834,83.4118,276.6986,0,U,50827,999,24244,-.58573E-4,-.122E-4,0
STARLINK-3290,2022-001AB,2026-05-28T08:45:10.708128,15.08863148,.0001095,53.2038,171.3335,101.6739,258.4376,0,U,50828,999,24228,.20201E-3,.2931E-4,0
STARLINK-3294,2022-001AC,2026-05-29T01:09:29.066112,15.08837183,.0001257,53.2023,168.3736,76.4478,283.6654,0,U,50829,999,24253,.27187E-4,.145E-5,0
STARLINK-3278,2022-001AD,2026-05-29T01:34:39.649152,15.08831572,.0001024,53.2017,178.2933,79.0124,281.0983,0,U,50830,999,24240,-.34494E-4,-.837E-5,0
STARLINK-3299,2022-001AE,2026-05-29T05:02:39.662592,15.08835741,.000124,53.2017,167.7103,85.1915,274.9218,0,U,50831,999,24256,.40994E-4,.365E-5,0
STARLINK-3328,2022-001AF,2026-05-29T01:36:02.820384,15.08834657,.0001095,53.2016,178.3366,84.6319,275.4798,0,U,50832,999,24240,.56312E-4,.608E-5,0
STARLINK-3331,2022-001AH,2026-05-29T01:13:28.058880,15.08830692,.0001161,53.2009,178.3647,83.1261,276.9863,0,U,50834,999,24239,-.20118E-5,-.32E-5,0
STARLINK-3310,2022-001AJ,2026-05-29T02:35:43.378080,15.09899458,.0001468,53.2149,178.0901,53.8783,306.2345,0,U,50835,999,24240,.98207E-3,.15836E-3,0
STARLINK-3330,2022-001AK,2026-05-29T02:23:41.273664,15.08846124,.0001143,53.2004,177.9185,84.9073,275.2049,0,U,50836,999,24230,-.1403E-3,-.252E-4,0
STARLINK-3318,2022-001AL,2026-05-29T05:07:56.786880,15.08848857,.0001192,53.2010,167.6272,95.0314,265.0814,0,U,50837,999,24256,-.16245E-3,-.2873E-4,0
STARLINK-3320,2022-001AN,2026-05-28T12:03:52.473888,15.08843009,.0001463,53.2023,180.8211,77.5504,282.5652,0,U,50839,999,24230,-.71102E-4,-.142E-4,0
STARLINK-3295,2022-001AP,2026-05-28T08:47:48.018336,15.08841208,.0001466,53.2040,181.4313,83.1968,276.9190,0,U,50840,999,24228,-.34369E-5,-.343E-5,0
STARLINK-3300,2022-001AQ,2026-05-29T02:32:56.860224,15.08833448,.000101,53.2006,178.1133,52.0526,308.0557,0,U,50841,999,24240,-.15495E-4,-.534E-5,0
STARLINK-3302,2022-001AR,2026-05-29T02:11:44.867328,15.08834565,.0001128,53.2010,178.1782,80.4048,279.7071,0,U,50842,999,24239,.25247E-5,-.248E-5,0
STARLINK-3326,2022-001AT,2026-05-28T08:26:36.379680,15.08840415,.000114,53.2035,181.5019,85.8458,274.2664,0,U,50844,999,24229,.59685E-4,.662E-5,0
STARLINK-3230,2022-001AU,2026-05-28T14:16:21.776736,15.08831697,.0001084,53.2001,180.4060,80.9115,279.2000,0,U,50845,999,24233,-.19589E-4,-.599E-5,0
STARLINK-3308,2022-001AV,2026-05-29T02:06:28.003968,15.08838269,.000111,53.2024,178.3126,80.3243,279.7875,0,U,50846,999,24240,.18752E-4,.11E-6,0
STARLINK-3315,2022-001AX,2026-05-29T01:45:15.350976,15.08836323,.0001227,53.2014,178.2617,76.3387,283.7742,0,U,50848,999,24240,.2196E-4,.62E-6,0
STARLINK-3311,2022-001AY,2026-05-29T05:11:55.053888,15.08830681,.0001243,53.2004,177.6161,108.8048,251.3079,0,U,50849,999,24242,.12021E-3,.1625E-4,0
STARLINK-3312,2022-001AZ,2026-05-28T22:55:40.937952,15.08836306,.0001332,53.2015,138.7889,76.8633,283.2507,0,U,50850,999,24348,.23848E-4,.92E-6,0
STARLINK-3314,2022-001BA,2026-05-29T01:29:20.567904,15.08834681,.0001242,53.2010,178.2355,74.2536,285.8593,0,U,50851,999,24240,-.32192E-4,-.8E-5,0
