STARLINK-3342           
1 50816U 22001P   26148.42687567  .00021143  00000+0  10819-2 0  9992
2 50816  53.2101 166.1141 0003143  49.4684 310.6585 15.16599033242514
STARLINK-3341           
1 50817U 22001Q   26149.19546025  .00001615  00000+0  11954-3 0  9995
2 50817  53.2019 167.7119 0001206  52.0311 308.0790 15.08847155242566
STARLINK-3336           
1 50818U 22001R   26148.44841014 -.00000338  00000+0 -31404-5 0  9996
2 50818  53.2022 171.0643 0000968  87.8610 272.2493 15.08841579242446
STARLINK-3327           
1 50819U 22001S   26149.05193189 -.00000118  00000+0  10687-4 0  9992
2 50819  53.2013 168.3565 0001090  65.9198 294.1908 15.08837228242545
STARLINK-3339           
1 50820U 22001T   26148.37113514  .00000072  00000+0  22624-4 0  9994
2 50820  53.2031 171.4104 0001533  71.3884 288.7274 15.08835163242435
STARLINK-3346           
1 50821U 22001U   26149.20647860 -.00000147  00000+0  88213-5 0  9995
2 50821  53.2004 167.5457 0001104  73.4262 286.6851 15.08834718242567
STARLINK-3343           
1 50822U 22001V   26148.36377177 -.00000019  00000+0  16904-4 0  9998
2 50822  53.2040 171.4460 0001354  85.6933 274.4213 15.08834072242439
STARLINK-3334           
1 50823U 22001W   26149.19177169  .00001632  00000+0  12057-3 0  9995
2 50823  53.2014 167.7283 0001152  70.2719 289.8397 15.08840111242568
STARLINK-3332           
1 50825U 22001Y   26149.02985743 -.00000159  00000+0  80921-5 0  9995
2 50825  53.2011 168.4540 0001192  78.4945 281.6180 15.08833316242532
STARLINK-3329           
1 50827U 22001AA  26148.44472909 -.00001220  00000+0 -58573-4 0  9995
2 50827  53.1994 171.0834 0000984  83.4118 276.6986 15.08841259242448
STARLINK-3290           
1 50828U 22001AB  26148.36470727  .00002931  00000+0  20201-3 0  9997
2 50828  53.2038 171.3335 0001095 101.6739 258.4376 15.08863148242288
STARLINK-3294           
1 50829U 22001AC  26149.04825308  .00000145  00000+0  27187-4 0  9999
2 50829  53.2023 168.3736 0001257  76.4478 283.6654 15.08837183242530
STARLINK-3278           
1 50830U 22001AD  26149.06573668 -.00000837  00000+0 -34494-4 0  9991
2 50830  53.2017 178.2933 0001024  79.0124 281.0983 15.08831572242402
STARLINK-3299           
1 50831U 22001AE  26149.21018128  .00000365  00000+0  40994-4 0  9990
2 50831  53.2017 167.7103 0001240  85.1915 274.9218 15.08835741242562
STARLINK-3328           
1 50832U 22001AF  26149.06669931  .00000608  00000+0  56312-4 0  9999
2 50832  53.2016 178.3366 0001095  84.6319 275.4798 15.08834657242408
STARLINK-3331           
1 50834U 22001AH  26149.05101920 -.00000320  00000+0 -20118-5 0  9998
2 50834  53.2009 178.3647 0001161  83.1261 276.9863 15.08830692242390
STARLINK-3310           
1 50835U 22001AJ  26149.10814095  .00015836  00000+0  98207-3 0  9997
2 50835  53.2149 178.0901 0001468  53.8783 306.2345 15.09899458242409
STARLINK-3330           
1 50836U 22001AK  26149.09978326 -.00002520  00000+0 -14030-3 0  9994
2 50836  53.2004 177.9185 0001143  84.9073 275.2049 15.08846124242305
STARLINK-3318           
1 50837U 22001AL  26149.21385170 -.00002873  00000+0 -16245-3 0  9999
2 50837  53.2010 167.6272 0001192  95.0314 265.0814 15.08848857242561
STARLINK-3320           
1 50839U 22001AN  26148.50269067 -.00001420  00000+0 -71102-4 0  9999
2 50839  53.2023 180.8211 0001463  77.5504 282.5652 15.08843009242304
STARLINK-3295           
1 50840U 22001AP  26148.36652799 -.00000343  00000+0 -34369-5 0  9991
2 50840  53.2040 181.4313 0001466  83.1968 276.9190 15.08841208242285
STARLINK-3300           
1 50841U 22001AQ  26149.10621366 -.00000534  00000+0 -15495-4 0  9991
2 50841  53.2006 178.1133 0001010  52.0526 308.0557 15.08833448242406
STARLINK-3302           
1 50842U 22001AR  26149.09149152 -.00000248  00000+0  25247-5 0  9996
2 50842  53.2010 178.1782 0001128  80.4048 279.7071 15.08834565242390
STARLINK-3326           
1 50844U 22001AT  26148.35180995  .00000662  00000+0  59685-4 0  9997
2 50844  53.2035 181.5019 0001140  85.8458 274.2664 15.08840415242296
STARLINK-3230           
1 50845U 22001AU  26148.59469649 -.00000599  00000+0 -19589-4 0  9990
2 50845  53.2001 180.4060 0001084  80.9115 279.2000 15.08831697242333
STARLINK-3308           
1 50846U 22001AV  26149.08782412  .00000011  00000+0  18752-4 0  9990
2 50846  53.2024 178.3126 0001110  80.3243 279.7875 15.08838269242409
STARLINK-3315           
1 50848U 22001AX  26149.07309434  .00000062  00000+0  21960-4 0  9991
2 50848  53.2014 178.2617 0001227  76.3387 283.7742 15.08836323242404
STARLINK-3311           
1 50849U 22001AY  26149.21660942  .00001625  00000+0  12021-3 0  9995
2 50849  53.2004 177.6161 0001243 108.8048 251.3079 15.08830681242421
STARLINK-3312           
1 50850U 22001AZ  26148.95533493  .00000092  00000+0  23848-4 0  9994
2 50850  53.2015 138.7889 0001332  76.8633 283.2507 15.08836306243480
STARLINK-3314           
1 50851U 22001BA  26149.06204361 -.00000800  00000+0 -32192-4 0  9998
2 50851  53.2010 178.2355 0001242  74.2536 285.8593 15.08834681242405
